{"type": "FeatureCollection", "features": [ {"type": "Feature", "properties": {"norad_id": 36990, "name": "FENGYUN 1C DEB", "group": "fengyun-1c-debris", "lat": 80.4370699610122, "lon": -103.18097593380186, "alt_km": 994.161823787188, "timestamp": "2025-12-19T22:41:52.682522+00:00", "meta": {"OBJECT_NAME": "FENGYUN 1C DEB", "OBJECT_ID": "1999-025EBW", "EPOCH": "2025-12-05T02:36:38.289600", "MEAN_MOTION": 13.56914719, "ECCENTRICITY": 0.0292772, "INCLINATION": 96.5839, "RA_OF_ASC_NODE": 290.134, "ARG_OF_PERICENTER": 44.0413, "MEAN_ANOMALY": 318.3658, "EPHEMERIS_TYPE": 0, "CLASSIFICATION_TYPE": "U", "NORAD_CAT_ID": 36990, "ELEMENT_SET_NO": 999, "REV_AT_EPOCH": 82784, "BSTAR": 0.0013157618, "MEAN_MOTION_DOT": 1.212e-05, "MEAN_MOTION_DDOT": 0}, "tle": {"line1": "1 36990U 99025EBW 25339.10877650  .00001212  00000+0  13158-2 0  9993", "line2": "2 36990  96.5839 290.1340 0292772  44.0413 318.3658 13.56914719827842"}}, "geometry": {"type": "Point", "coordinates": [-103.18097593380186, 80.4370699610122]}}, {"type": "Feature", "properties": {"norad_id": 36994, "name": "FENGYUN 1C DEB", "group": "fengyun-1c-debris", "lat": 38.95531831026025, "lon": -51.36503362373361, "alt_km": 971.7695263080977, "timestamp": "2025-12-19T22:41:52.682533+00:00", "meta": {"OBJECT_NAME": "FENGYUN 1C DEB", "OBJECT_ID": "1999-025ECA", "EPOCH": "2025-12-16T08:10:41.996640", "MEAN_MOTION": 13.90788308, "ECCENTRICITY": 0.0114556, "INCLINATION": 98.643, "RA_OF_ASC_NODE": 312.3437, "ARG_OF_PERICENTER": 283.1778, "MEAN_ANOMALY": 75.6623, "EPHEMERIS_TYPE": 0, "CLASSIFICATION_TYPE": "U", "NORAD_CAT_ID": 36994, "ELEMENT_SET_NO": 999, "REV_AT_EPOCH": 80957, "BSTAR": 0.00016418343, "MEAN_MOTION_DOT": 1.75e-06, "MEAN_MOTION_DDOT": 0}, "tle": {"line1": "1 36994U 99025ECA 25350.34076385  .00000175  00000+0  16418-3 0  9992", "line2": "2 36994  98.6430 312.3437 0114556 283.1778  75.6623 13.90788308809579"}}, "geometry": {"type": "Point", "coordinates": [-51.36503362373361, 38.95531831026025]}}, {"type": "Feature", "properties": {"norad_id": 36995, "name": "FENGYUN 1C DEB", "group": "fengyun-1c-debris", "lat": -51.643720874016935, "lon": -117.23834376601052, "alt_km": 857.2842593358846, "timestamp": "2025-12-19T22:41:52.682544+00:00", "meta": {"OBJECT_NAME": "FENGYUN 1C DEB", "OBJECT_ID": "1999-025ECB", "EPOCH": "2025-12-19T09:16:16.802976", "MEAN_MOTION": 14.04869062, "ECCENTRICITY": 0.003843, "INCLINATION": 98.3428, "RA_OF_ASC_NODE": 231.561, "ARG_OF_PERICENTER": 291.755, "MEAN_ANOMALY": 67.9531, "EPHEMERIS_TYPE": 0, "CLASSIFICATION_TYPE": "U", "NORAD_CAT_ID": 36995, "ELEMENT_SET_NO": 999, "REV_AT_EPOCH": 63650, "BSTAR": 0.0002061, "MEAN_MOTION_DOT": 2.94e-06, "MEAN_MOTION_DDOT": 0}, "tle": {"line1": "1 36995U 99025ECB 25353.38630559  .00000294  00000+0  20610-3 0  9990", "line2": "2 36995  98.3428 231.5610 0038430 291.7550  67.9531 14.04869062636504"}}, "geometry": {"type": "Point", "coordinates": [-117.23834376601052, -51.643720874016935]}}, {"type": "Feature", "properties": {"norad_id": 36996, "name": "FENGYUN 1C DEB", "group": "fengyun-1c-debris", "lat": -45.88969985379301, "lon": -42.98679559184851, "alt_km": 894.5564263818296, "timestamp": "2025-12-19T22:41:52.682554+00:00", "meta": {"OBJECT_NAME": "FENGYUN 1C DEB", "OBJECT_ID": "1999-025ECC", "EPOCH": "2025-12-19T06:51:36.156096", "MEAN_MOTION": 14.11557729, "ECCENTRICITY": 0.0254059, "INCLINATION": 98.2257, "RA_OF_ASC_NODE": 144.9888, "ARG_OF_PERICENTER": 330.3469, "MEAN_ANOMALY": 147.4127, "EPHEMERIS_TYPE": 0, "CLASSIFICATION_TYPE": "U", "NORAD_CAT_ID": 36996, "ELEMENT_SET_NO": 999, "REV_AT_EPOCH": 59784, "BSTAR": 0.00056112, "MEAN_MOTION_DOT": 1.337e-05, "MEAN_MOTION_DDOT": 0}, "tle": {"line1": "1 36996U 99025ECC 25353.28583514  .00001337  00000+0  56112-3 0  9993", "line2": "2 36996  98.2257 144.9888 0254059 330.3469 147.4127 14.11557729597844"}}, "geometry": {"type": "Point", "coordinates": [-42.98679559184851, -45.88969985379301]}}, {"type": "Feature", "properties": {"norad_id": 37003, "name": "FENGYUN 1C DEB", "group": "fengyun-1c-debris", "lat": -63.995526574493205, "lon": 178.67214477065508, "alt_km": 928.9458728156833, "timestamp": "2025-12-19T22:41:52.682564+00:00", "meta": {"OBJECT_NAME": "FENGYUN 1C DEB", "OBJECT_ID": "1999-025ECK", "EPOCH": "2025-12-18T07:48:02.434752", "MEAN_MOTION": 13.96231437, "ECCENTRICITY": 0.00968579, "INCLINATION": 98.8458, "RA_OF_ASC_NODE": 15.7304, "ARG_OF_PERICENTER": 147.1253, "MEAN_ANOMALY": 235.2095, "EPHEMERIS_TYPE": 0, "CLASSIFICATION_TYPE": "U", "NORAD_CAT_ID": 37003, "ELEMENT_SET_NO": 999, "REV_AT_EPOCH": 60735, "BSTAR": 0.00036300048, "MEAN_MOTION_DOT": 4.78e-06, "MEAN_MOTION_DDOT": 0}, "tle": {"line1": "1 37003U 99025ECK 25352.32502818  .00000478  00000+0  36300-3 0  9997", "line2": "2 37003  98.8458  15.7304 0096857 147.1253 235.2095 13.96231437607351"}}, "geometry": {"type": "Point", "coordinates": [178.67214477065508, -63.995526574493205]}}, {"type": "Feature", "properties": {"norad_id": 37006, "name": "FENGYUN 1C DEB", "group": "fengyun-1c-debris", "lat": 50.561402865074754, "lon": 74.73659730195335, "alt_km": 745.7241514451243, "timestamp": "2025-12-19T22:41:52.682575+00:00", "meta": {"OBJECT_NAME": "FENGYUN 1C DEB", "OBJECT_ID": "1999-025ECN", "EPOCH": "2025-12-19T10:28:57.061920", "MEAN_MOTION": 14.48944917, "ECCENTRICITY": 0.0255191, "INCLINATION": 99.2983, "RA_OF_ASC_NODE": 242.6867, "ARG_OF_PERICENTER": 228.1435, "MEAN_ANOMALY": 129.7724, "EPHEMERIS_TYPE": 0, "CLASSIFICATION_TYPE": "U", "NORAD_CAT_ID": 37006, "ELEMENT_SET_NO": 999, "REV_AT_EPOCH": 65211, "BSTAR": 0.00044029, "MEAN_MOTION_DOT": 2.456e-05, "MEAN_MOTION_DDOT": 0}, "tle": {"line1": "1 37006U 99025ECN 25353.43677155  .00002456  00000+0  44029-3 0  9995", "line2": "2 37006  99.2983 242.6867 0255191 228.1435 129.7724 14.48944917652119"}}, "geometry": {"type": "Point", "coordinates": [74.73659730195335, 50.561402865074754]}}, {"type": "Feature", "properties": {"norad_id": 37008, "name": "FENGYUN 1C DEB", "group": "fengyun-1c-debris", "lat": -10.937666187179007, "lon": -68.89884755962203, "alt_km": 837.1643988166797, "timestamp": "2025-12-19T22:41:52.682585+00:00", "meta": {"OBJECT_NAME": "FENGYUN 1C DEB", "OBJECT_ID": "1999-025ECQ", "EPOCH": "2025-12-18T18:30:00.286560", "MEAN_MOTION": 14.07953439, "ECCENTRICITY": 0.00624739, "INCLINATION": 99.1348, "RA_OF_ASC_NODE": 111.6946, "ARG_OF_PERICENTER": 236.931, "MEAN_ANOMALY": 122.585, "EPHEMERIS_TYPE": 0, "CLASSIFICATION_TYPE": "U", "NORAD_CAT_ID": 37008, "ELEMENT_SET_NO": 999, "REV_AT_EPOCH": 60399, "BSTAR": 0.0010654755, "MEAN_MOTION_DOT": 1.797e-05, "MEAN_MOTION_DDOT": 0}, "tle": {"line1": "1 37008U 99025ECQ 25352.77083665  .00001797  00000+0  10655-2 0  9994", "line2": "2 37008  99.1348 111.6946 0062473 236.9310 122.5850 14.07953439603993"}}, "geometry": {"type": "Point", "coordinates": [-68.89884755962203, -10.937666187179007]}}, {"type": "Feature", "properties": {"norad_id": 37017, "name": "FENGYUN 1C DEB", "group": "fengyun-1c-debris", "lat": -74.69443765495012, "lon": -26.90210499262784, "alt_km": 661.9895002922894, "timestamp": "2025-12-19T22:41:52.682596+00:00", "meta": {"OBJECT_NAME": "FENGYUN 1C DEB", "OBJECT_ID": "1999-025ECZ", "EPOCH": "2025-12-17T02:42:23.641632", "MEAN_MOTION": 14.40762673, "ECCENTRICITY": 0.0282027, "INCLINATION": 98.7904, "RA_OF_ASC_NODE": 295.7523, "ARG_OF_PERICENTER": 352.2584, "MEAN_ANOMALY": 7.4295, "EPHEMERIS_TYPE": 0, "CLASSIFICATION_TYPE": "U", "NORAD_CAT_ID": 37017, "ELEMENT_SET_NO": 999, "REV_AT_EPOCH": 61224, "BSTAR": 0.0015677447, "MEAN_MOTION_DOT": 8.005e-05, "MEAN_MOTION_DDOT": 0}, "tle": {"line1": "1 37017U 99025ECZ 25351.11277363  .00008005  00000+0  15677-2 0  9999", "line2": "2 37017  98.7904 295.7523 0282027 352.2584   7.4295 14.40762673612242"}}, "geometry": {"type": "Point", "coordinates": [-26.90210499262784, -74.69443765495012]}}, {"type": "Feature", "properties": {"norad_id": 37021, "name": "FENGYUN 1C DEB", "group": "fengyun-1c-debris", "lat": 12.379142835335482, "lon": -167.75924305679584, "alt_km": 726.2123830936034, "timestamp": "2025-12-19T22:41:52.682607+00:00", "meta": {"OBJECT_NAME": "FENGYUN 1C DEB", "OBJECT_ID": "1999-025EDD", "EPOCH": "2025-12-18T21:19:54.256224", "MEAN_MOTION": 14.32297815, "ECCENTRICITY": 0.01759429, "INCLINATION": 98.385, "RA_OF_ASC_NODE": 9.3631, "ARG_OF_PERICENTER": 233.4704, "MEAN_ANOMALY": 249.0172, "EPHEMERIS_TYPE": 0, "CLASSIFICATION_TYPE": "U", "NORAD_CAT_ID": 37021, "ELEMENT_SET_NO": 999, "REV_AT_EPOCH": 70142, "BSTAR": 0.0005092002, "MEAN_MOTION_DOT": 1.583e-05, "MEAN_MOTION_DDOT": 0}, "tle": {"line1": "1 37021U 99025EDD 25352.88882241  .00001583  00000+0  50920-3 0  9991", "line2": "2 37021  98.3850   9.3631 0175942 233.4704 249.0172 14.32297815701422"}}, "geometry": {"type": "Point", "coordinates": [-167.75924305679584, 12.379142835335482]}}, {"type": "Feature", "properties": {"norad_id": 37028, "name": "FENGYUN 1C DEB", "group": "fengyun-1c-debris", "lat": -67.1297502915002, "lon": -75.26051871061493, "alt_km": 843.4894045088595, "timestamp": "2025-12-19T22:41:52.682617+00:00", "meta": {"OBJECT_NAME": "FENGYUN 1C DEB", "OBJECT_ID": "1999-025EDL", "EPOCH": "2025-12-18T11:34:45.442560", "MEAN_MOTION": 14.22776654, "ECCENTRICITY": 0.00337702, "INCLINATION": 99.2466, "RA_OF_ASC_NODE": 260.4859, "ARG_OF_PERICENTER": 82.1635, "MEAN_ANOMALY": 278.3373, "EPHEMERIS_TYPE": 0, "CLASSIFICATION_TYPE": "U", "NORAD_CAT_ID": 37028, "ELEMENT_SET_NO": 999, "REV_AT_EPOCH": 60557, "BSTAR": 0.0014134336, "MEAN_MOTION_DOT": 3.141e-05, "MEAN_MOTION_DDOT": 0}, "tle": {"line1": "1 37028U 99025EDL 25352.48247040  .00003141  00000+0  14134-2 0  9994", "line2": "2 37028  99.2466 260.4859 0033770  82.1635 278.3373 14.22776654605577"}}, "geometry": {"type": "Point", "coordinates": [-75.26051871061493, -67.1297502915002]}}]}